0 CZ-2D DEB
1 35272U 05024L   13282.88144797  .00001919  00000-0  12538-3 0  3271
2 35272 097.7033 300.7643 0016784 164.5191 318.0573 15.08946979434293
0 CZ-2D DEB
1 35272U 05024L   13286.31928480  .00002013  00000-0  13124-3 0  3281
2 35272 097.7029 304.2151 0016905 153.1448 272.8102 15.08958222434812
0 CZ-2D DEB
1 35272U 05024L   13287.85524425  .00004285  00000-0  27459-3 0  3292
2 35272 097.7021 305.7568 0016952 148.4972 335.9551 15.08964811435050
0 CZ-2D DEB
1 35272U 05024L   13289.30289619  .00004143  00000-0  26554-3 0  3307
2 35272 097.7017 307.2096 0016999 144.0438 279.5427 15.08972583435261
0 CZ-2D DEB
1 35272U 05024L   13291.29181950  .00004104  00000-0  26302-3 0  3316
2 35272 097.7018 309.2053 0017132 137.6218 283.6616 15.08986033435565
0 CZ-2D DEB
1 35272U 05024L   13293.28059378  .00003975  00000-0  25474-3 0  3320
2 35272 097.7022 311.2009 0017330 131.0149 287.2537 15.09000401435867
0 CZ-2D DEB
1 35272U 05024L   13295.87836927  .00003802  00000-0  24367-3 0  3330
2 35272 097.7025 313.8080 0017564 122.7734 358.8789 15.09018587436255
